BISONSAT                
1 40968U 15058E   24118.61690775  .00008814  00000+0  81032-3 0  9990
2 40968  64.7769 163.7479 0182897 318.6327  40.1047 14.83417529   314
ELEKTRO-L 2             
1 41105U 15074A   24119.26688392 -.00000105  00000+0  00000+0 0  9994
2 41105   4.7147  80.0378 0001187 229.2341 349.0233  1.00272737 30693
TELEOS-1                
1 41169U 15077D   24118.85670323  .00028057  00000+0  93827-3 0  9994
2 41169  14.9785 191.1460 0006585 241.2352 118.7310 15.28775019463135
VELOX-II                
1 41171U 15077F   24118.58672322  .00138452  00000+0  17425-2 0  9998
2 41171  14.9872  94.1011 0001045 107.7654 252.2787 15.57726985463903
DAMPE                   
1 41173U 15078A   24119.52635084  .00002701  00000+0  10481-3 0  9993
2 41173  97.4298 113.2754 0011758 324.7633  35.2828 15.26928227465401
ORBCOMM FM114           
1 41179U 15081A   24119.32051647  .00002307  00000+0  55026-3 0  9994
2 41179  47.0015  83.9097 0002108 259.0538 101.0110 14.56551695444003
ORBCOMM FM110           
1 41182U 15081D   24119.16051709  .00002078  00000+0  49948-3 0  9990
2 41182  47.0003  84.0719 0001448  36.2211 323.8772 14.56540955443987
ORBCOMM FM112           
1 41184U 15081F   24118.92497439  .00002781  00000+0  65567-3 0  9995
2 41184  46.9988 354.1852 0001434 279.2656  80.8067 14.56552987445094
ORBCOMM FM113           
1 41185U 15081G   24119.03929291  .00002596  00000+0  61457-3 0  9993
2 41185  47.0009 353.9104 0001141 294.6979  65.3787 14.56547157445160
ORBCOMM FM108           
1 41187U 15081J   24118.71884774  .00002716  00000+0  64144-3 0  9995
2 41187  47.0035 266.6145 0003171 212.3732 147.6959 14.56533657446194
ORBCOMM FM117           
1 41188U 15081K   24119.09617340  .00002665  00000+0  63009-3 0  9993
2 41188  46.9993 263.7341 0003706 222.1655 137.8945 14.56540700446349
ORBCOMM FM116           
1 41189U 15081L   24118.94829990  .00002798  00000+0  65962-3 0  9990
2 41189  47.0017 354.2503 0002352 305.2907  54.7757 14.56538796445084
CHUBUSAT-2              
1 41338U 16012B   24118.91023300  .00009260  00000+0  58680-3 0  9999
2 41338  31.0024 354.2505 0011151  89.9691 270.2224 15.07615594450007
CHUBUSAT-3              
1 41339U 16012C   24118.96763838  .00008851  00000+0  56837-3 0  9999
2 41339  31.0087 352.0691 0011191  96.3313 263.8599 15.07115583449998
HORYU-4                 
1 41340U 16012D   24118.89359818  .00019166  00000+0  99403-3 0  9999
2 41340  31.0029 303.0425 0009269 179.7214 180.3431 15.14954009450516
E-ST@R-II               
1 41459U 16025D   24119.44516273  .01235410  83476-3  21564-2 0  9993
2 41459  98.1151   6.3480 0018173  65.0958 295.2206 16.02015698441827
ZIYUAN 3-2 (ZY 3-2)     
1 41556U 16033A   24119.49523144  .00012230  00000+0  54701-3 0  9990
2 41556  97.4565 195.3416 0003008 252.6031 107.4876 15.21443070439442
CARTOSAT-2C             
1 41599U 16040A   24119.49311190  .00007879  00000+0  37682-3 0  9993
2 41599  97.4358 179.0732 0012353 328.3978  31.6513 15.19195489435338
LAPAN-A3                
1 41603U 16040E   24119.50604102  .00004404  00000+0  18011-3 0  9995
2 41603  97.1453 135.4844 0010166 278.5965  81.4121 15.24790973435657
BIROS                   
1 41604U 16040F   24118.83270878  .00018617  00000+0  51646-3 0  9992
2 41604  97.1270 148.7730 0007906 216.4901 143.5807 15.36935281436440
M3MSAT                  
1 41605U 16040G   24118.80742828  .00020265  00000+0  57920-3 0  9992
2 41605  97.1271 146.0143 0007583 237.2739 122.7775 15.35990246436266
GAOFEN-3                
1 41727U 16049A   24119.55154199  .00000208  00000+0  76360-4 0  9992
2 41727  98.4065 127.9494 0001417  83.0746 277.0605 14.42219108406269
QSS (MOZI)              
1 41731U 16051A   24119.51849468  .00011871  00000+0  33324-3 0  9996
2 41731  97.3117  31.6940 0011685  52.1511 308.0789 15.36634723429061
PRATHAM                 
1 41783U 16059A   24118.78747308  .00002025  00000+0  38572-3 0  9990
2 41783  97.8399 140.4880 0032741 177.9013 182.2334 14.64733743405161
ALSAT 1N                
1 41789U 16059G   24119.53707923  .00001884  00000+0  34739-3 0  9992
2 41789  97.8324 147.1968 0028133 153.3865 206.8791 14.66356056405619
CAS-2T & KS-1Q          
1 41847U 16066G   24119.17985198  .00002211  00000+0  33290-3 0  9993
2 41847  98.4618 190.8465 0354096 328.1184  29.9000 14.41071058392295
YUNHAI-1 01             
1 41857U 16068A   24119.53867753  .00000637  00000+0  24909-3 0  9999
2 41857  98.5938 126.0308 0007680 149.1842 210.9795 14.32963832390173
RESOURCESAT-2A          
1 41877U 16074A   24119.45996376  .00000390  00000+0  19718-3 0  9991
2 41877  98.6465 193.9237 0001894 127.2191 232.9160 14.21666431383524
TANSAT                  
1 41898U 16081A   24119.47960916  .00001433  00000+0  31940-3 0  9995
2 41898  98.4674  89.3212 0020414 193.9742 166.0894 14.58347329390902
JILIN-1 03              
1 41914U 17002B   24119.53172736  .00010520  00000+0  50722-3 0  9996
2 41914  97.2206 138.6713 0011516  79.8776 280.3758 15.18826147402624
KAIDUN 1                
1 41915U 17002C   24119.54552348  .00016306  00000+0  60647-3 0  9994
2 41915  97.2069 149.0566 0008311  64.8044 295.4056 15.27553394403298
CARTOSAT-2D             
1 41948U 17008A   24119.46208954  .00010673  00000+0  50966-3 0  9992
2 41948  97.4290 179.5524 0005577 102.5831 257.6027 15.19211073399196
DIDO-2                  
1 42000U 17008BE  24118.91401179  .00161616  00000+0  12194-2 0  9999
2 42000  97.1406 179.0230 0002626 272.5474  87.5489 15.71987196400867
ZHUHAI-1 02 (CAS-4B)    
1 42759U 17034B   24119.53985286  .00016476  00000+0  63071-3 0  9998
2 42759  43.0157 146.7503 0012365  14.0843 346.0351 15.26245634379810
ZHUHAI-1 01 (CAS-4A)    
1 42761U 17034D   24119.47953053  .00016691  00000+0  63638-3 0  9999
2 42761  43.0172 145.4715 0011120  19.4501 340.6773 15.26383819379815
CARTOSAT-2E             
1 42767U 17036C   24119.47823290  .00008440  00000+0  40373-3 0  9990
2 42767  97.4413 179.5898 0006007 159.7232 200.4242 15.19217107379765
AALTO-1                 
1 42775U 17036L   24119.03899249  .00088014  00000+0  11244-2 0  9997
2 42775  97.1107 148.3581 0005389  55.8067 304.3700 15.58945968381276
URSA MAIOR              
1 42776U 17036M   24119.54297668  .00139021  00000+0  11057-2 0  9998
2 42776  97.1064 152.2829 0002702  59.2376 300.9153 15.70791162381560
MAX VALIER SAT          
1 42778U 17036P   24118.84430138  .00181262  00000+0  14290-2 0  9999
2 42778  97.1045 155.6817 0003394  78.6944 281.4700 15.70875658381631
D-SAT                   
1 42794U 17036AF  24119.45108507  .00011816  00000+0  84395-3 0  9998
2 42794  97.4976 103.1491 0107006 316.7452  42.5405 15.00074551373293
IRIDIUM 113             
1 42803U 17039A   24118.87948192  .00000236  00000+0  77157-4 0  9992
2 42803  86.3921 288.2248 0002364  90.1019 270.0448 14.34218375359344
NORSAT 2                
1 42828U 17042D   24119.52336267  .00009127  00000+0  72983-3 0  9999
2 42828  97.3789 308.1969 0011861 214.5614 145.4841 15.00370546369955
TECHNOSAT               
1 42829U 17042E   24119.49839980  .00005895  00000+0  52794-3 0  9992
2 42829  97.3838 303.3714 0011732 238.5787 121.4288 14.96115878369745
FLYING LAPTOP           
1 42831U 17042G   24119.18377515  .00004901  00000+0  45451-3 0  9991
2 42831  97.3855 303.0410 0011568 241.0087 118.9975 14.94818562369669
WNISAT 1R               
1 42835U 17042L   24119.48263379  .00003743  00000+0  34693-3 0  9999
2 42835  97.3843 303.1900 0010951 237.7720 122.2440 14.94982810369737
LEMUR-2-GREENBERG       
1 42837U 17042N   24118.47624298  .00021277  00000+0  15720-2 0  9991
2 42837  97.3662 309.6091 0015867 203.5865 156.4635 15.03137342370024
LEMUR-2-FURIAUS         
1 42840U 17042R   24119.50770027  .00009780  00000+0  74608-3 0  9998
2 42840  97.3688 310.4390 0011456 244.1495 115.8550 15.02151511370127
CORVUS BC2              
1 42846U 17042X   24119.47473172  .00007180  00000+0  62470-3 0  9997
2 42846  97.3758 307.3634 0007245 215.5044 144.5697 14.97206565370001
CORVUS BC1              
1 42847U 17042Y   24119.50763475  .00004739  00000+0  41252-3 0  9992
2 42847  97.3739 307.7909 0007483 219.6165 140.4512 14.97351750370023
VRSS-2                  
1 42954U 17060A   24119.46328769  .00002548  00000+0  35645-3 0  9994
2 42954  97.7575 177.4764 0019536 120.8417 239.4719 14.78286781353120
MOHAMMED VI-A           
1 43005U 17070A   24119.50108899  .00001872  00000+0  27188-3 0  9990
2 43005  97.9404 191.9831 0001191  96.1720 263.9625 14.77148701348880
FENGYUN 3D              
1 43010U 17072A   24119.46663202  .00000361  00000+0  19355-3 0  9996
2 43010  98.9070  73.8417 0002524 104.6734 255.4722 14.19327071334362
CZ-4C R/B               
1 43012U 17072C   24119.44540614  .00001205  00000+0  25036-3 0  9998
2 43012  98.6019 191.5120 0126026  31.5825 329.2857 14.57250165343007
NOAA 20 (JPSS-1)        
1 43013U 17073A   24119.51065682  .00000242  00000+0  13532-3 0  9993
2 43013  98.7037  58.2707 0001577  47.1044 313.0264 14.19571929333855
MIRATA                  
1 43015U 17073C   24119.46078345  .00030115  00000+0  14746-2 0  9998
2 43015  97.6017   4.8511 0178521  70.9171 291.1293 15.05142337348848
MAKERSAT 0              
1 43016U 17073D   24118.91008883  .00020858  00000+0  12080-2 0  9990
2 43016  97.5872 359.3278 0202377  91.5671 270.8742 14.96514356348392
RADFXSAT (FOX-1B)       
1 43017U 17073E   24119.18716657  .00014394  00000+0  90074-3 0  9994
2 43017  97.5843 356.4674 0215770 100.7335 261.8256 14.92148160348202
EAGLESAT 1              
1 43018U 17073F   24119.39641775  .00032440  00000+0  16150-2 0  9990
2 43018  97.6038   4.7712 0184668  75.1850 286.9753 15.03779790348600
JILIN-1 04              
1 43022U 17074A   24119.51890279  .00010192  00000+0  48007-3 0  9992
2 43022  97.4847 211.6383 0007787  89.0552 271.1575 15.19687199354987
